{"spkid": "50619749", "covariance": {"epoch": "2458844.5", "elements": [{"name": "e", "sigma": 1.98733008522464e-08, "title": "eccentricity", "value": ".2501809945609709", "units": null, "label": "e"}, {"label": "q", "value": ".9566780413866961", "title": "perihelion distance", "units": "au", "name": "q", "sigma": 2.56428953915775e-08}, {"label": "tp", "name": "tp", "sigma": 1.35949848458188e-05, "value": "2458993.605626543482", "title": "time of perihelion passage", "units": "TDB"}, {"label": "node", "sigma": 7.99537223630251e-05, "name": "om", "units": "deg", "title": "longitude of the ascending node", "value": "251.7456501787785"}, {"label": "peri", "sigma": 8.0394952048882e-05, "name": "w", "title": "argument of perihelion", "value": "267.3040523511613", "units": "deg"}, {"label": "i", "units": "deg", "title": "inclination", "value": "1.540568418231056", "name": "i", "sigma": 3.46020869894553e-06}], "data": [["3.949480867638995E-16", "-5.092693794651695E-16", "7.7469119501104E-14", "-3.889337440962962E-14", "1.242208971809449E-13", "8.282937683954827E-16"], ["-5.092693794651695E-16", "6.575580840633863E-16", "-1.034418195298562E-13", "4.647588616578929E-14", "-1.579729474206061E-13", "-1.026572419780645E-15"], ["7.7469119501104E-14", "-1.034418195298562E-13", "1.84823612958044E-10", "4.452859181713478E-11", "9.62343123458158E-11", "1.887284117801524E-11"], ["-3.889337440962962E-14", "4.647588616578929E-14", "4.452859181713478E-11", "6.3925977197037E-9", "-6.370588024084905E-9", "1.513182408485446E-10"], ["1.242208971809449E-13", "-1.579729474206061E-13", "9.62343123458158E-11", "-6.370588024084905E-9", "6.463348314942039E-9", "-1.383527803601601E-10"], ["8.282937683954827E-16", "-1.026572419780645E-15", "1.887284117801524E-11", "1.513182408485446E-10", "-1.383527803601601E-10", "1.197304424025833E-11"]], "labels": ["e", "q", "tp", "node", "peri", "i"]}, "elements": [{"label": "e", "title": "eccentricity", "value": ".2504059535463727", "units": null, "name": "e", "sigma": "2.0009E-8"}, {"sigma": "1.9513E-9", "name": "a", "units": "au", "title": "semi-major axis", "value": "1.27621744957933", "label": "a"}, {"title": "perihelion distance", "value": ".9566450021848981", "units": "au", "name": "q", "sigma": "2.5598E-8", "label": "q"}, {"label": "i", "units": "deg", "value": "1.535986102353547", "title": "inclination; angle with respect to x-y ecliptic plane", "name": "i", "sigma": "3.449E-6"}, {"label": "node", "units": "deg", "value": "250.5084306876821", "title": "longitude of the ascending node", "sigma": "8.1416E-5", "name": "om"}, {"value": "268.2481030862198", "title": "argument of perihelion", "units": "deg", "name": "w", "sigma": "8.145E-5", "label": "peri"}, {"sigma": "8.7504E-6", "name": "ma", "title": "mean anomaly", "value": "69.40913350220069", "units": "deg", "label": "M"}, {"name": "tp", "sigma": "1.2972E-5", "units": "TDB", "title": "time of perihelion passage", "value": "2461098.968788948543", "label": "tp"}, {"sigma": "1.2078E-6", "name": "per", "units": "d", "title": "sidereal orbital period", "value": "526.6055652080069", "label": "period"}, {"label": "n", "sigma": "1.5679E-9", "name": "n", "units": "deg/d", "title": "mean motion", "value": ".6836236146836041"}, {"value": "1.595789896973762", "title": "aphelion distance", "units": "au", "sigma": "2.4399E-9", "name": "ad", "label": "Q"}], "epoch": "2461200.5"}